OBJECT_NAME,OBJECT_ID,EPOCH,MEAN_MOTION,ECCENTRICITY,INCLINATION,RA_OF_ASC_NODE,ARG_OF_PERICENTER,MEAN_ANOMALY,EPHEMERIS_TYPE,CLASSIFICATION_TYPE,NORAD_CAT_ID,ELEMENT_SET_NO,REV_AT_EPOCH,BSTAR,MEAN_MOTION_DOT,MEAN_MOTION_DDOT
GPS BIIR-5  (PRN 22),2000-040A,2026-06-18T17:34:11.686080,2.00557662,.0121028,54.8512,215.1009,302.4827,16.7895,0,U,26407,999,18997,0,.25E-6,0
GPS BIIR-8  (PRN 16),2003-005A,2026-06-18T16:12:09.879840,2.00560468,.0147937,54.8819,214.9098,53.0835,1.0670,0,U,27663,999,17134,0,.25E-6,0
GPS BIIR-11 (PRN 19),2004-009A,2026-06-18T09:49:08.915808,2.00554634,.0116203,54.8286,275.6379,173.1352,202.0749,0,U,28190,999,16297,0,-.46E-6,0
GPS BIIR-13 (PRN 02),2004-045A,2026-06-18T17:28:42.171168,2.00555891,.0169874,55.1348,324.8340,316.4539,354.1240,0,U,28474,999,15845,0,-.88E-6,0
GPS BIIRM-1 (PRN 17),2005-038A,2026-06-18T10:04:52.948128,2.00565534,.0127877,54.8770,273.1277,296.1687,115.6239,0,U,28874,999,15186,0,-.43E-6,0
INMARSAT 4-F2 (SOUTHPAN/PRN 122),2005-044A,2026-06-18T13:36:11.137248,1.00269076,.0002918,5.0973,43.7031,41.1947,169.4302,0,U,28899,999,7553,0,-.269E-5,0
GPS BIIRM-2 (PRN 31),2006-042A,2026-06-18T03:07:36.765696,2.00569747,.01066492,54.7109,151.3015,54.4413,46.6051,0,U,29486,999,14441,0,.49E-6,0
GPS BIIRM-3 (PRN 12),2006-052A,2026-06-16T10:06:35.618112,2.00557832,.00852186,54.9348,214.0365,90.8278,270.2339,0,U,29601,999,14339,0,.54E-6,0
GPS BIIRM-4 (PRN 15),2007-047A,2026-06-16T05:27:46.844064,2.00555157,.0166748,54.0945,80.1052,87.3533,274.5596,0,U,32260,999,13679,0,-.35E-6,0
COSMOS 2433 (720),2007-052A,2026-06-18T07:45:41.471424,2.13103986,.0002563,65.5762,315.8954,193.8036,166.1776,0,U,32275,999,14508,0,-.55E-6,0
COSMOS 2432 (719),2007-052B,2026-06-18T10:24:38.203200,2.13103035,.0007652,65.5932,316.0195,331.4172,57.1212,0,U,32276,999,14511,0,-.56E-6,0
GPS BIIRM-5 (PRN 29),2007-062A,2026-06-16T12:50:22.410240,2.00560015,.00357024,55.0322,274.1789,165.2122,184.0447,0,U,32384,999,13549,0,-.29E-6,0
COSMOS 2434 (721),2007-065A,2026-06-17T03:43:05.101824,2.13101292,.00011976,64.3178,191.9169,336.0402,97.3647,0,U,32393,999,14377,0,.65E-6,0
COSMOS 2436 (723),2007-065C,2026-06-18T08:30:03.526272,2.13100056,.0017258,64.3266,191.9485,353.8532,51.9116,0,U,32395,999,14375,0,.57E-6,0
GPS BIIRM-6 (PRN 07),2008-012A,2026-06-18T03:11:52.098432,2.00572404,.0211272,54.4975,149.8869,247.8593,109.8588,0,U,32711,999,13377,0,.48E-6,0
GPS BIIRM-8 (PRN 05),2009-043A,2026-06-16T06:48:23.933376,2.00554227,.0053768,56.2097,27.4871,83.1336,31.1253,0,U,35752,999,12334,0,-.73E-6,0
COSMOS 2456 (730),2009-070A,2026-06-16T03:42:15.751008,2.13103754,.0004648,65.0107,71.0074,331.0109,212.9328,0,U,36111,999,12840,0,-.23E-6,0
COSMOS 2457 (733),2009-070B,2026-06-18T07:58:32.353824,2.13101036,.0002917,64.9975,70.7771,122.0762,60.1336,0,U,36112,999,12845,0,-.27E-6,0
COSMOS 2460 (732),2010-007C,2026-06-17T13:27:51.817824,2.13101532,.0002116,65.4202,314.4544,111.2732,201.1882,0,U,36402,999,12673,0,-.54E-6,0
GPS BIIF-1  (PRN 25),2010-022A,2026-06-17T23:03:34.657056,2.00562413,.0126293,54.2701,208.5308,66.0938,297.8200,0,U,36585,999,11761,0,.37E-6,0
BEIDOU-2 IGSO-1 (C06),2010-036A,2026-06-17T22:01:50.166336,1.00271928,.0059238,54.3019,162.9525,225.3267,315.9903,0,U,36828,999,5810,0,-.86E-6,0
BEIDOU-2 G4 (C04),2010-057A,2026-06-18T15:23:35.026368,1.00270608,.0005286,3.6509,68.9379,196.3307,32.4982,0,U,37210,999,5730,0,-.12E-5,0
BEIDOU-2 IGSO-2 (C07),2010-068A,2026-06-18T16:24:29.017152,1.00282207,.0055907,47.5458,271.8126,212.7128,136.4505,0,U,37256,999,5680,0,-.219E-5,0
BEIDOU-2 IGSO-3 (C08),2011-013A,2026-06-18T14:41:11.762880,1.00267082,.0034295,62.4088,40.1377,184.6608,10.0015,0,U,37384,999,5567,0,-.19E-5,0
GSAT-8 (GAGAN/PRN 127),2011-022A,2026-06-18T21:29:01.029120,1.00271420,.0002093,2.1365,81.8041,198.1643,4.4963,0,U,37605,999,5323,0,.78E-6,0
BEIDOU-2 IGSO-4 (C09),2011-038A,2026-06-16T16:27:02.962080,1.00285273,.01595197,54.6000,165.6770,231.4431,207.9860,0,U,37763,999,5464,0,.19E-6,0
GSAT0101 (GALILEO-PFM),2011-060A,2026-06-16T20:21:41.873184,1.70475567,.00029968,56.9944,341.7702,53.3752,306.6473,0,U,37846,999,9111,0,-.88E-6,0
GSAT0102 (GALILEO-FM2),2011-060B,2026-06-15T14:11:42.824832,1.70475803,.00031675,56.9958,341.8048,14.2663,339.9688,0,U,37847,999,9109,0,-.84E-6,0
COSMOS 2476 (744),2011-064A,2026-06-18T15:07:49.214208,2.13103712,.0022663,65.2707,72.8228,238.8292,313.0156,0,U,37867,999,11379,0,-.25E-6,0
COSMOS 2477 (745),2011-064B,2026-06-18T08:35:35.551968,2.13102888,.0019699,65.2769,72.9113,240.1479,283.0716,0,U,37868,999,11378,0,-.24E-6,0
COSMOS 2475 (743),2011-064C,2026-06-18T09:36:04.669920,2.13101709,.0025435,65.2838,72.9316,253.1618,257.3953,0,U,37869,999,11379,0,-.24E-6,0
